ONEWEB-0500             
1 54118U 22138F   26055.24495543  .00000116  00000+0  25672-3 0  9991
2 54118  87.9247 327.4564 0001821  79.6141 280.5197 13.19725752161933
ONEWEB-0501             
1 54119U 22138G   26055.27497054  .00000064  00000+0  12877-3 0  9999
2 54119  87.9246 327.4517 0001468  89.7068 270.4233 13.19725061161918
ONEWEB-0502             
1 54120U 22138H   26055.26074764  .00000029  00000+0  39585-4 0  9996
2 54120  87.9253 327.4380 0001472  81.8153 278.3146 13.19724818161930
ONEWEB-0503             
1 54121U 22138J   26055.24969224  .00000091  00000+0  19422-3 0  9995
2 54121  87.9255 327.4440 0001628  71.3493 288.7816 13.19724761161929
ONEWEB-0504             
1 54122U 22138K   26055.23706257  .00000153  00000+0  35021-3 0  9992
2 54122  87.9247 327.4581 0001482  81.2661 278.8640 13.19725449161932
ONEWEB-0505             
1 54123U 22138L   26055.23389663  .00000143  00000+0  32375-3 0  9999
2 54123  87.9256 327.4538 0001336  91.6404 268.4882 13.19724617161910
ONEWEB-0506             
1 54124U 22138M   26055.28444888  .00000008  00000+0 -12832-4 0  9994
2 54124  87.9253 327.4413 0001493  86.1660 273.9644 13.19726038161913
ONEWEB-0507             
1 54125U 22138N   26055.22915915  .00000082  00000+0  17277-3 0  9991
2 54125  87.9241 327.4758 0001634  86.4687 273.6633 13.19725590161953
ONEWEB-0508             
1 54126U 22138P   26055.22598969  .00000069  00000+0  13976-3 0  9995
2 54126  87.9244 327.4748 0001617  95.7540 264.3778 13.19728254161933
ONEWEB-0509             
1 54127U 22138Q   26055.27653246  .00000003  00000+0 -25618-4 0  9997
2 54127  87.9255 327.4430 0001621  81.8195 278.3122 13.19726367161910
ONEWEB-0510             
1 54128U 22138R   26055.17811706  .00000140  00000+0  31274-3 0  9999
2 54128  87.9191 296.9967 0001977  71.3504 288.7844 13.20771297164369
ONEWEB-0511             
1 54129U 22138S   26055.27338477  .00000099  00000+0  21522-3 0  9998
2 54129  87.9255 327.4477 0001546  71.7840 288.3461 13.19725480161949
ONEWEB-0512             
1 54130U 22138T   26055.26548463  .00000025  00000+0  29258-4 0  9991
2 54130  87.9243 327.4648 0001404  85.1033 275.0260 13.19727183161913
ONEWEB-0513             
1 54131U 22138U   26055.24145304  .00000134  00000+0  29906-3 0  9997
2 54131  87.9256 327.4255 0000806  87.7428 272.3797 13.20261867161811
ONEWEB-0514             
1 54132U 22138V   26055.28128366 -.00000054  00000+0 -16607-3 0  9998
2 54132  87.9246 327.4503 0001804  74.9036 285.2297 13.19725842161936
ONEWEB-0515             
1 54133U 22138W   26055.16548710  .00000191  00000+0  43698-3 0  9995
2 54133  87.9189 296.9880 0002550  82.1668 277.9755 13.20771560164381
ONEWEB-0516             
1 54134U 22138X   26055.25601052  .00000087  00000+0  18560-3 0  9999
2 54134  87.9243 327.4679 0001769  83.4099 276.7235 13.19724702161934
