[{"OBJECT_NAME":"ONEWEB-0500","OBJECT_ID":"2022-138F","EPOCH":"2026-02-24T05:52:44.149152","MEAN_MOTION":13.19725752,"ECCENTRICITY":0.00018218,"INCLINATION":87.9247,"RA_OF_ASC_NODE":327.4564,"ARG_OF_PERICENTER":79.6141,"MEAN_ANOMALY":280.5197,"EPHEMERIS_TYPE":0,"CLASSIFICATION_TYPE":"U","NORAD_CAT_ID":54118,"ELEMENT_SET_NO":999,"REV_AT_EPOCH":16193,"BSTAR":0.00025672499,"MEAN_MOTION_DOT":1.16e-6,"MEAN_MOTION_DDOT":0},{"OBJECT_NAME":"ONEWEB-0501","OBJECT_ID":"2022-138G","EPOCH":"2026-02-24T06:35:57.454656","MEAN_MOTION":13.19725061,"ECCENTRICITY":0.00014685,"INCLINATION":87.9246,"RA_OF_ASC_NODE":327.4517,"ARG_OF_PERICENTER":89.7068,"MEAN_ANOMALY":270.4233,"EPHEMERIS_TYPE":0,"CLASSIFICATION_TYPE":"U","NORAD_CAT_ID":54119,"ELEMENT_SET_NO":999,"REV_AT_EPOCH":16191,"BSTAR":0.00012877409,"MEAN_MOTION_DOT":6.4e-7,"MEAN_MOTION_DDOT":0},{"OBJECT_NAME":"ONEWEB-0502","OBJECT_ID":"2022-138H","EPOCH":"2026-02-24T06:15:28.596096","MEAN_MOTION":13.19724818,"ECCENTRICITY":0.00014722,"INCLINATION":87.9253,"RA_OF_ASC_NODE":327.438,"ARG_OF_PERICENTER":81.8153,"MEAN_ANOMALY":278.3146,"EPHEMERIS_TYPE":0,"CLASSIFICATION_TYPE":"U","NORAD_CAT_ID":54120,"ELEMENT_SET_NO":999,"REV_AT_EPOCH":16193,"BSTAR":3.9584842e-5,"MEAN_MOTION_DOT":2.9e-7,"MEAN_MOTION_DDOT":0},{"OBJECT_NAME":"ONEWEB-0503","OBJECT_ID":"2022-138J","EPOCH":"2026-02-24T05:59:33.409536","MEAN_MOTION":13.19724761,"ECCENTRICITY":0.00016288,"INCLINATION":87.9255,"RA_OF_ASC_NODE":327.444,"ARG_OF_PERICENTER":71.3493,"MEAN_ANOMALY":288.7816,"EPHEMERIS_TYPE":0,"CLASSIFICATION_TYPE":"U","NORAD_CAT_ID":54121,"ELEMENT_SET_NO":999,"REV_AT_EPOCH":16192,"BSTAR":0.00019421972,"MEAN_MOTION_DOT":9.1e-7,"MEAN_MOTION_DDOT":0},{"OBJECT_NAME":"ONEWEB-0504","OBJECT_ID":"2022-138K","EPOCH":"2026-02-24T05:41:22.206048","MEAN_MOTION":13.19725449,"ECCENTRICITY":0.00014824,"INCLINATION":87.9247,"RA_OF_ASC_NODE":327.4581,"ARG_OF_PERICENTER":81.2661,"MEAN_ANOMALY":278.864,"EPHEMERIS_TYPE":0,"CLASSIFICATION_TYPE":"U","NORAD_CAT_ID":54122,"ELEMENT_SET_NO":999,"REV_AT_EPOCH":16193,"BSTAR":0.00035021455,"MEAN_MOTION_DOT":1.53e-6,"MEAN_MOTION_DDOT":0},{"OBJECT_NAME":"ONEWEB-0505","OBJECT_ID":"2022-138L","EPOCH":"2026-02-24T05:36:48.668832","MEAN_MOTION":13.19724617,"ECCENTRICITY":0.00013369,"INCLINATION":87.9256,"RA_OF_ASC_NODE":327.4538,"ARG_OF_PERICENTER":91.6404,"MEAN_ANOMALY":268.4882,"EPHEMERIS_TYPE":0,"CLASSIFICATION_TYPE":"U","NORAD_CAT_ID":54123,"ELEMENT_SET_NO":999,"REV_AT_EPOCH":16191,"BSTAR":0.00032375078,"MEAN_MOTION_DOT":1.43e-6,"MEAN_MOTION_DDOT":0},{"OBJECT_NAME":"ONEWEB-0506","OBJECT_ID":"2022-138M","EPOCH":"2026-02-24T06:49:36.383232","MEAN_MOTION":13.19726038,"ECCENTRICITY":0.00014935,"INCLINATION":87.9253,"RA_OF_ASC_NODE":327.4413,"ARG_OF_PERICENTER":86.166,"MEAN_ANOMALY":273.9644,"EPHEMERIS_TYPE":0,"CLASSIFICATION_TYPE":"U","NORAD_CAT_ID":54124,"ELEMENT_SET_NO":999,"REV_AT_EPOCH":16191,"BSTAR":-1.2831668e-5,"MEAN_MOTION_DOT":8.0e-8,"MEAN_MOTION_DDOT":0},{"OBJECT_NAME":"ONEWEB-0507","OBJECT_ID":"2022-138N","EPOCH":"2026-02-24T05:29:59.350560","MEAN_MOTION":13.1972559,"ECCENTRICITY":0.00016349,"INCLINATION":87.9241,"RA_OF_ASC_NODE":327.4758,"ARG_OF_PERICENTER":86.4687,"MEAN_ANOMALY":273.6633,"EPHEMERIS_TYPE":0,"CLASSIFICATION_TYPE":"U","NORAD_CAT_ID":54125,"ELEMENT_SET_NO":999,"REV_AT_EPOCH":16195,"BSTAR":0.00017276884,"MEAN_MOTION_DOT":8.2e-7,"MEAN_MOTION_DDOT":0},{"OBJECT_NAME":"ONEWEB-0508","OBJECT_ID":"2022-138P","EPOCH":"2026-02-24T05:25:25.509216","MEAN_MOTION":13.19728254,"ECCENTRICITY":0.00016178,"INCLINATION":87.9244,"RA_OF_ASC_NODE":327.4748,"ARG_OF_PERICENTER":95.754,"MEAN_ANOMALY":264.3778,"EPHEMERIS_TYPE":0,"CLASSIFICATION_TYPE":"U","NORAD_CAT_ID":54126,"ELEMENT_SET_NO":999,"REV_AT_EPOCH":16193,"BSTAR":0.00013976197,"MEAN_MOTION_DOT":6.9e-7,"MEAN_MOTION_DDOT":0},{"OBJECT_NAME":"ONEWEB-0509","OBJECT_ID":"2022-138Q","EPOCH":"2026-02-24T06:38:12.404544","MEAN_MOTION":13.19726367,"ECCENTRICITY":0.00016213,"INCLINATION":87.9255,"RA_OF_ASC_NODE":327.443,"ARG_OF_PERICENTER":81.8195,"MEAN_ANOMALY":278.3122,"EPHEMERIS_TYPE":0,"CLASSIFICATION_TYPE":"U","NORAD_CAT_ID":54127,"ELEMENT_SET_NO":999,"REV_AT_EPOCH":16191,"BSTAR":-2.5618105e-5,"MEAN_MOTION_DOT":3.0e-8,"MEAN_MOTION_DDOT":0},{"OBJECT_NAME":"ONEWEB-0510","OBJECT_ID":"2022-138R","EPOCH":"2026-02-24T04:16:29.313984","MEAN_MOTION":13.20771297,"ECCENTRICITY":0.00019777,"INCLINATION":87.9191,"RA_OF_ASC_NODE":296.9967,"ARG_OF_PERICENTER":71.3504,"MEAN_ANOMALY":288.7844,"EPHEMERIS_TYPE":0,"CLASSIFICATION_TYPE":"U","NORAD_CAT_ID":54128,"ELEMENT_SET_NO":999,"REV_AT_EPOCH":16436,"BSTAR":0.00031273618,"MEAN_MOTION_DOT":1.4e-6,"MEAN_MOTION_DDOT":0},{"OBJECT_NAME":"ONEWEB-0511","OBJECT_ID":"2022-138S","EPOCH":"2026-02-24T06:33:40.444128","MEAN_MOTION":13.1972548,"ECCENTRICITY":0.00015469,"INCLINATION":87.9255,"RA_OF_ASC_NODE":327.4477,"ARG_OF_PERICENTER":71.784,"MEAN_ANOMALY":288.3461,"EPHEMERIS_TYPE":0,"CLASSIFICATION_TYPE":"U","NORAD_CAT_ID":54129,"ELEMENT_SET_NO":999,"REV_AT_EPOCH":16194,"BSTAR":0.00021522191,"MEAN_MOTION_DOT":9.9e-7,"MEAN_MOTION_DDOT":0},{"OBJECT_NAME":"ONEWEB-0512","OBJECT_ID":"2022-138T","EPOCH":"2026-02-24T06:22:17.872032","MEAN_MOTION":13.19727183,"ECCENTRICITY":0.00014047,"INCLINATION":87.9243,"RA_OF_ASC_NODE":327.4648,"ARG_OF_PERICENTER":85.1033,"MEAN_ANOMALY":275.026,"EPHEMERIS_TYPE":0,"CLASSIFICATION_TYPE":"U","NORAD_CAT_ID":54130,"ELEMENT_SET_NO":999,"REV_AT_EPOCH":16191,"BSTAR":2.9258144e-5,"MEAN_MOTION_DOT":2.5e-7,"MEAN_MOTION_DDOT":0},{"OBJECT_NAME":"ONEWEB-0513","OBJECT_ID":"2022-138U","EPOCH":"2026-02-24T05:47:41.542656","MEAN_MOTION":13.20261867,"ECCENTRICITY":8.061e-5,"INCLINATION":87.9256,"RA_OF_ASC_NODE":327.4255,"ARG_OF_PERICENTER":87.7428,"MEAN_ANOMALY":272.3797,"EPHEMERIS_TYPE":0,"CLASSIFICATION_TYPE":"U","NORAD_CAT_ID":54131,"ELEMENT_SET_NO":999,"REV_AT_EPOCH":16181,"BSTAR":0.00029905722,"MEAN_MOTION_DOT":1.34e-6,"MEAN_MOTION_DDOT":0},{"OBJECT_NAME":"ONEWEB-0514","OBJECT_ID":"2022-138V","EPOCH":"2026-02-24T06:45:02.908224","MEAN_MOTION":13.19725842,"ECCENTRICITY":0.00018048,"INCLINATION":87.9246,"RA_OF_ASC_NODE":327.4503,"ARG_OF_PERICENTER":74.9036,"MEAN_ANOMALY":285.2297,"EPHEMERIS_TYPE":0,"CLASSIFICATION_TYPE":"U","NORAD_CAT_ID":54132,"ELEMENT_SET_NO":999,"REV_AT_EPOCH":16193,"BSTAR":-0.00016607231,"MEAN_MOTION_DOT":-5.4e-7,"MEAN_MOTION_DDOT":0},{"OBJECT_NAME":"ONEWEB-0515","OBJECT_ID":"2022-138W","EPOCH":"2026-02-24T03:58:18.085440","MEAN_MOTION":13.2077156,"ECCENTRICITY":0.00025501,"INCLINATION":87.9189,"RA_OF_ASC_NODE":296.988,"ARG_OF_PERICENTER":82.1668,"MEAN_ANOMALY":277.9755,"EPHEMERIS_TYPE":0,"CLASSIFICATION_TYPE":"U","NORAD_CAT_ID":54133,"ELEMENT_SET_NO":999,"REV_AT_EPOCH":16438,"BSTAR":0.00043698052,"MEAN_MOTION_DOT":1.91e-6,"MEAN_MOTION_DDOT":0},{"OBJECT_NAME":"ONEWEB-0516","OBJECT_ID":"2022-138X","EPOCH":"2026-02-24T06:08:39.308928","MEAN_MOTION":13.19724702,"ECCENTRICITY":0.00017696,"INCLINATION":87.9243,"RA_OF_ASC_NODE":327.4679,"ARG_OF_PERICENTER":83.4099,"MEAN_ANOMALY":276.7235,"EPHEMERIS_TYPE":0,"CLASSIFICATION_TYPE":"U","NORAD_CAT_ID":54134,"ELEMENT_SET_NO":999,"REV_AT_EPOCH":16193,"BSTAR":0.00018559636,"MEAN_MOTION_DOT":8.7e-7,"MEAN_MOTION_DDOT":0}]
